{
  "type": "FeatureCollection",
  "features": [
    {
      "type": "Feature",
      "properties": {
        "norad_id": 54259,
        "name": "EUTELSAT 10B",
        "group": "eutelsat",
        "lat": -0.03920103736249177,
        "lon": -10.227808878634843,
        "alt_km": 35791.31050058329,
        "timestamp": "2025-12-03T17:47:50.383863+00:00",
        "meta_object_name": "EUTELSAT 10B",
        "meta_object_id": "2022-157A",
        "meta_epoch": "2025-12-03T04:33:38.732832",
        "meta_mean_motion": 1.00268425,
        "meta_eccentricity": 0.0001038,
        "meta_inclination": 0.0608,
        "meta_ra_of_asc_node": 103.578,
        "meta_arg_of_pericenter": 72.8343,
        "meta_mean_anomaly": 334.2971,
        "meta_ephemeris_type": 0,
        "meta_classification_type": "U",
        "meta_norad_cat_id": 54259,
        "meta_element_set_no": 999,
        "meta_rev_at_epoch": 1106,
        "meta_bstar": 0,
        "meta_mean_motion_dot": 8.7e-07,
        "meta_mean_motion_ddot": 0,
        "tle_line1": "1 54259U 22157A   25337.19003163  .00000087  00000+0  00000+0 0  9998",
        "tle_line2": "2 54259   0.0608 103.5780 0001038  72.8343 334.2971  1.00268425 11069"
      },
      "geometry": {
        "type": "Point",
        "coordinates": [
          -10.227808878634843,
          -0.03920103736249177
        ]
      }
    },
    {
      "type": "Feature",
      "properties": {
        "norad_id": 59346,
        "name": "EUTELSAT 36D",
        "group": "eutelsat",
        "lat": 0.029864428550351717,
        "lon": 15.61802440007449,
        "alt_km": 35785.54807498176,
        "timestamp": "2025-12-03T17:47:50.383874+00:00",
        "meta_object_name": "EUTELSAT 36D",
        "meta_object_id": "2024-059A",
        "meta_epoch": "2025-12-03T10:29:54.441024",
        "meta_mean_motion": 1.00270785,
        "meta_eccentricity": 6.35e-05,
        "meta_inclination": 0.0217,
        "meta_ra_of_asc_node": 343.5943,
        "meta_arg_of_pericenter": 319.0725,
        "meta_mean_anomaly": 323.187,
        "meta_ephemeris_type": 0,
        "meta_classification_type": "U",
        "meta_norad_cat_id": 59346,
        "meta_element_set_no": 999,
        "meta_rev_at_epoch": 618,
        "meta_bstar": 0,
        "meta_mean_motion_dot": 0,
        "meta_mean_motion_ddot": 0,
        "tle_line1": "1 59346U 24059A   25337.43743566  .00000000  00000+0  00000+0 0  9993",
        "tle_line2": "2 59346   0.0217 343.5943 0000635 319.0725 323.1870  1.00270785  6180"
      },
      "geometry": {
        "type": "Point",
        "coordinates": [
          15.61802440007449,
          0.029864428550351717
        ]
      }
    }
  ]
}